{"type": "FeatureCollection", "features": [{"id": "725", "type": "Feature", "properties": {"name": "Altst\u00e4tten SG, Kapf", "lon": 9.554922122867637, "lat": 47.39554640747878, "stop_id": ["8580996.link:1143704", "8580996.link:1143705"], "lines": [{"line_id": "96-224-7-j24-1", "route_id": "22.TA.96-224-7-j24-1.7.R", "mode": "bus", "line_name": "227"}, {"line_id": "96-224-7-j24-1", "route_id": "11.TA.96-224-7-j24-1.3.H", "mode": "bus", "line_name": "227"}, {"line_id": "96-224-7-j24-1", "route_id": "3.TA.96-224-7-j24-1.3.H", "mode": "bus", "line_name": "227"}], "predominant_mode": "bus", "assigned_canton": "Appenzell Innerrhoden", "modes_list": ["bus"]}, "geometry": {"type": "Point", "coordinates": [9.554922132196017, 47.395546417337144]}}, {"id": "939", "type": "Feature", "properties": {"name": "Appenzell", "lon": 9.408997708295944, "lat": 47.32834651362285, "stop_id": ["8506286.link:154497", "8506286:0:2.link:154492", "8506286:0:2.link:154493", "8506286:0:3.link:154492", "8506286:0:3/4.link:154496", "8506286:0:3/4.link:154497", "8506286:0:3A.link:154493", "8506286:0:3B.link:154492", "8506286:0:3B.link:154493", "8506286:0:4.link:154492", "8506286:0:4A.link:154492", "8506286:0:4A.link:154493", "8506286:0:4B.link:154492"], "lines": [{"line_id": "91-23-A-j24-1", "route_id": "97.TA.91-23-A-j24-1.39.H", "mode": "rail", "line_name": "S23"}, {"line_id": "91-23-A-j24-1", "route_id": "78.TA.91-23-A-j24-1.38.H", "mode": "rail", "line_name": "S23"}, {"line_id": "91-21-j24-1", "route_id": "138.TA.91-21-j24-1.4.H", "mode": "rail", "line_name": "S21"}, {"line_id": "91-21-j24-1", "route_id": "441.TA.91-21-j24-1.10.R", "mode": "rail", "line_name": "S21"}, {"line_id": "91-21-j24-1", "route_id": "401.TA.91-21-j24-1.8.R", "mode": "rail", "line_name": "S21"}, {"line_id": "91-21-j24-1", "route_id": "434.TA.91-21-j24-1.10.R", "mode": "rail", "line_name": "S21"}, {"line_id": "91-21-j24-1", "route_id": "453.TA.91-21-j24-1.11.R", "mode": "rail", "line_name": "S21"}, {"line_id": "91-21-j24-1", "route_id": "299.TA.91-21-j24-1.40.R", "mode": "rail", "line_name": "S21"}, {"line_id": "91-21-j24-1", "route_id": "307.TA.91-21-j24-1.41.R", "mode": "rail", "line_name": "S21"}, {"line_id": "91-21-j24-1", "route_id": "449.TA.91-21-j24-1.11.R", "mode": "rail", "line_name": "S21"}, {"line_id": "91-20-E-j24-1", "route_id": "13.TA.91-20-E-j24-1.2.R", "mode": "rail", "line_name": "S20"}, {"line_id": "91-21-j24-1", "route_id": "225.TA.91-21-j24-1.5.H", "mode": "rail", "line_name": "S21"}, {"line_id": "91-21-j24-1", "route_id": "146.TA.91-21-j24-1.5.H", "mode": "rail", "line_name": "S21"}, {"line_id": "91-21-j24-1", "route_id": "212.TA.91-21-j24-1.5.H", "mode": "rail", "line_name": "S21"}, {"line_id": "91-21-j24-1", "route_id": "152.TA.91-21-j24-1.5.H", "mode": "rail", "line_name": "S21"}, {"line_id": "91-21-j24-1", "route_id": "181.TA.91-21-j24-1.5.H", "mode": "rail", "line_name": "S21"}, {"line_id": "91-21-j24-1", "route_id": "108.TA.91-21-j24-1.35.H", "mode": "rail", "line_name": "S21"}, {"line_id": "91-20-E-j24-1", "route_id": "15.TA.91-20-E-j24-1.3.R", "mode": "rail", "line_name": "S20"}, {"line_id": "91-23-A-j24-1", "route_id": "349.TA.91-23-A-j24-1.52.R", "mode": "rail", "line_name": "S23"}, {"line_id": "91-23-A-j24-1", "route_id": "228.TA.91-23-A-j24-1.45.H", "mode": "rail", "line_name": "S23"}, {"line_id": "91-23-A-j24-1", "route_id": "431.TA.91-23-A-j24-1.57.R", "mode": "rail", "line_name": "S23"}, {"line_id": "91-23-A-j24-1", "route_id": "383.TA.91-23-A-j24-1.54.R", "mode": "rail", "line_name": "S23"}, {"line_id": "91-23-A-j24-1", "route_id": "153.TA.91-23-A-j24-1.42.H", "mode": "rail", "line_name": "S23"}, {"line_id": "91-20-E-j24-1", "route_id": "7.TA.91-20-E-j24-1.1.H", "mode": "rail", "line_name": "S20"}, {"line_id": "91-23-A-j24-1", "route_id": "154.TA.91-23-A-j24-1.42.H", "mode": "rail", "line_name": "S23"}, {"line_id": "91-23-A-j24-1", "route_id": "381.TA.91-23-A-j24-1.53.R", "mode": "rail", "line_name": "S23"}, {"line_id": "91-23-A-j24-1", "route_id": "318.TA.91-23-A-j24-1.49.R", "mode": "rail", "line_name": "S23"}, {"line_id": "91-23-A-j24-1", "route_id": "225.TA.91-23-A-j24-1.44.H", "mode": "rail", "line_name": "S23"}, {"line_id": "91-23-A-j24-1", "route_id": "325.TA.91-23-A-j24-1.51.R", "mode": "rail", "line_name": "S23"}, {"line_id": "91-23-A-j24-1", "route_id": "316.TA.91-23-A-j24-1.48.R", "mode": "rail", "line_name": "S23"}, {"line_id": "91-23-A-j24-1", "route_id": "397.TA.91-23-A-j24-1.55.R", "mode": "rail", "line_name": "S23"}, {"line_id": "91-23-A-j24-1", "route_id": "169.TA.91-23-A-j24-1.43.H", "mode": "rail", "line_name": "S23"}, {"line_id": "91-23-A-j24-1", "route_id": "320.TA.91-23-A-j24-1.50.R", "mode": "rail", "line_name": "S23"}], "predominant_mode": "rail", "assigned_canton": "Appenzell Innerrhoden", "modes_list": ["rail"]}, "geometry": {"type": "Point", "coordinates": [9.408997717516979, 47.328346523507356]}}, {"id": "940", "type": "Feature", "properties": {"name": "Appenzell, Adlerplatz", "lon": 9.411101840679828, "lat": 47.330634419743525, "stop_id": ["8581181.link:655277", "8581181.link:655278"], "lines": [{"line_id": "96-221-6-j24-1", "route_id": "100.TA.96-221-6-j24-1.6.R", "mode": "bus", "line_name": "191"}, {"line_id": "96-221-6-j24-1", "route_id": "104.TA.96-221-6-j24-1.7.R", "mode": "bus", "line_name": "191"}, {"line_id": "96-221-6-j24-1", "route_id": "61.TA.96-221-6-j24-1.3.H", "mode": "bus", "line_name": "191"}, {"line_id": "96-221-6-j24-1", "route_id": "21.TA.96-221-6-j24-1.1.H", "mode": "bus", "line_name": "191"}, {"line_id": "96-221-6-j24-1", "route_id": "153.TA.96-221-6-j24-1.8.R", "mode": "bus", "line_name": "191"}, {"line_id": "96-221-6-j24-1", "route_id": "29.TA.96-221-6-j24-1.2.H", "mode": "bus", "line_name": "191"}], "predominant_mode": "bus", "assigned_canton": "Appenzell Innerrhoden", "modes_list": ["bus"]}, "geometry": {"type": "Point", "coordinates": [9.41110184990198, 47.33063442962809]}}, {"id": "941", "type": "Feature", "properties": {"name": "Appenzell, Alpsteinstrasse", "lon": 9.42631032066713, "lat": 47.33009863950428, "stop_id": ["8578419.link:1123480", "8578419.link:1123481"], "lines": [{"line_id": "96-221-6-j24-1", "route_id": "100.TA.96-221-6-j24-1.6.R", "mode": "bus", "line_name": "191"}, {"line_id": "96-221-6-j24-1", "route_id": "21.TA.96-221-6-j24-1.1.H", "mode": "bus", "line_name": "191"}], "predominant_mode": "bus", "assigned_canton": "Appenzell Innerrhoden", "modes_list": ["bus"]}, "geometry": {"type": "Point", "coordinates": [9.426310329903199, 47.330098649383764]}}, {"id": "942", "type": "Feature", "properties": {"name": "Appenzell, Bahnhof", "lon": 9.409448940622033, "lat": 47.328899179769586, "stop_id": ["8578423.link:1876107", "8578423.link:447849", "8578423.link:447850"], "lines": [{"line_id": "92-B23-j24-1", "route_id": "7.TA.92-B23-j24-1.4.R", "mode": "bus", "line_name": "B23"}, {"line_id": "92-B21-j24-1", "route_id": "11.TA.92-B21-j24-1.7.R", "mode": "bus", "line_name": "B21"}, {"line_id": "96-221-6-j24-1", "route_id": "29.TA.96-221-6-j24-1.2.H", "mode": "bus", "line_name": "191"}, {"line_id": "96-221-6-j24-1", "route_id": "21.TA.96-221-6-j24-1.1.H", "mode": "bus", "line_name": "191"}, {"line_id": "96-221-6-j24-1", "route_id": "153.TA.96-221-6-j24-1.8.R", "mode": "bus", "line_name": "191"}, {"line_id": "92-B21-j24-1", "route_id": "15.TA.92-B21-j24-1.8.R", "mode": "bus", "line_name": "B21"}, {"line_id": "92-B21-j24-1", "route_id": "6.TA.92-B21-j24-1.4.H", "mode": "bus", "line_name": "B21"}, {"line_id": "92-B21-j24-1", "route_id": "4.TA.92-B21-j24-1.3.H", "mode": "bus", "line_name": "B21"}, {"line_id": "96-221-6-j24-1", "route_id": "100.TA.96-221-6-j24-1.6.R", "mode": "bus", "line_name": "191"}, {"line_id": "96-221-6-j24-1", "route_id": "61.TA.96-221-6-j24-1.3.H", "mode": "bus", "line_name": "191"}, {"line_id": "92-B23-j24-1", "route_id": "2.TA.92-B23-j24-1.2.H", "mode": "bus", "line_name": "B23"}, {"line_id": "96-221-6-j24-1", "route_id": "104.TA.96-221-6-j24-1.7.R", "mode": "bus", "line_name": "191"}], "predominant_mode": "bus", "assigned_canton": "Appenzell Innerrhoden", "modes_list": ["bus"]}, "geometry": {"type": "Point", "coordinates": [9.40944894984329, 47.328899189654116]}}, {"id": "943", "type": "Feature", "properties": {"name": "Appenzell, Bleichenwald", "lon": 9.425250310886796, "lat": 47.336765169520866, "stop_id": ["8578426.link:401230", "8578426.link:401231"], "lines": [{"line_id": "96-221-6-j24-1", "route_id": "104.TA.96-221-6-j24-1.7.R", "mode": "bus", "line_name": "191"}, {"line_id": "96-221-6-j24-1", "route_id": "29.TA.96-221-6-j24-1.2.H", "mode": "bus", "line_name": "191"}], "predominant_mode": "bus", "assigned_canton": "Appenzell Innerrhoden", "modes_list": ["bus"]}, "geometry": {"type": "Point", "coordinates": [9.42525032011961, 47.33676517940282]}}, {"id": "944", "type": "Feature", "properties": {"name": "Appenzell, Bleuer", "lon": 9.444573070742496, "lat": 47.332205229216875, "stop_id": ["8578417.link:1328295", "8578417.link:1328296"], "lines": [{"line_id": "96-221-6-j24-1", "route_id": "100.TA.96-221-6-j24-1.6.R", "mode": "bus", "line_name": "191"}, {"line_id": "96-221-6-j24-1", "route_id": "21.TA.96-221-6-j24-1.1.H", "mode": "bus", "line_name": "191"}], "predominant_mode": "bus", "assigned_canton": "Appenzell Innerrhoden", "modes_list": ["bus"]}, "geometry": {"type": "Point", "coordinates": [9.444573079994296, 47.33220523909117]}}, {"id": "945", "type": "Feature", "properties": {"name": "Appenzell, Hallenbad", "lon": 9.411892360797257, "lat": 47.33418388973106, "stop_id": ["8581182.link:995848"], "lines": [{"line_id": "96-221-6-j24-1", "route_id": "100.TA.96-221-6-j24-1.6.R", "mode": "bus", "line_name": "191"}, {"line_id": "96-221-6-j24-1", "route_id": "153.TA.96-221-6-j24-1.8.R", "mode": "bus", "line_name": "191"}, {"line_id": "96-221-6-j24-1", "route_id": "104.TA.96-221-6-j24-1.7.R", "mode": "bus", "line_name": "191"}], "predominant_mode": "bus", "assigned_canton": "Appenzell Innerrhoden", "modes_list": ["bus"]}, "geometry": {"type": "Point", "coordinates": [9.411892370018906, 47.33418389961649]}}, {"id": "946", "type": "Feature", "properties": {"name": "Appenzell, Hirschberg Station", "lon": 9.421333650728393, "lat": 47.33200430958252, "stop_id": ["8581183.link:88996", "8581183.link:88997"], "lines": [{"line_id": "92-B21-j24-1", "route_id": "11.TA.92-B21-j24-1.7.R", "mode": "bus", "line_name": "B21"}, {"line_id": "96-221-6-j24-1", "route_id": "29.TA.96-221-6-j24-1.2.H", "mode": "bus", "line_name": "191"}, {"line_id": "96-221-6-j24-1", "route_id": "21.TA.96-221-6-j24-1.1.H", "mode": "bus", "line_name": "191"}, {"line_id": "96-221-6-j24-1", "route_id": "104.TA.96-221-6-j24-1.7.R", "mode": "bus", "line_name": "191"}, {"line_id": "92-B21-j24-1", "route_id": "4.TA.92-B21-j24-1.3.H", "mode": "bus", "line_name": "B21"}, {"line_id": "92-B21-j24-1", "route_id": "6.TA.92-B21-j24-1.4.H", "mode": "bus", "line_name": "B21"}, {"line_id": "96-221-6-j24-1", "route_id": "100.TA.96-221-6-j24-1.6.R", "mode": "bus", "line_name": "191"}, {"line_id": "92-B21-j24-1", "route_id": "15.TA.92-B21-j24-1.8.R", "mode": "bus", "line_name": "B21"}, {"line_id": "96-221-8-j24-1", "route_id": "42.TA.96-221-8-j24-1.3.R", "mode": "bus", "line_name": "192"}], "predominant_mode": "bus", "assigned_canton": "Appenzell Innerrhoden", "modes_list": ["bus"]}, "geometry": {"type": "Point", "coordinates": [9.421333659959316, 47.332004319464225]}}, {"id": "947", "type": "Feature", "properties": {"name": "Appenzell, Kreuzhof", "lon": 9.413150000731962, "lat": 47.33219304971134, "stop_id": ["8581180.link:1355281", "8581180.link:564403"], "lines": [{"line_id": "96-221-6-j24-1", "route_id": "21.TA.96-221-6-j24-1.1.H", "mode": "bus", "line_name": "191"}, {"line_id": "96-221-6-j24-1", "route_id": "153.TA.96-221-6-j24-1.8.R", "mode": "bus", "line_name": "191"}, {"line_id": "96-221-6-j24-1", "route_id": "29.TA.96-221-6-j24-1.2.H", "mode": "bus", "line_name": "191"}, {"line_id": "96-221-6-j24-1", "route_id": "100.TA.96-221-6-j24-1.6.R", "mode": "bus", "line_name": "191"}, {"line_id": "96-221-6-j24-1", "route_id": "104.TA.96-221-6-j24-1.7.R", "mode": "bus", "line_name": "191"}, {"line_id": "96-221-6-j24-1", "route_id": "61.TA.96-221-6-j24-1.3.H", "mode": "bus", "line_name": "191"}], "predominant_mode": "bus", "assigned_canton": "Appenzell Innerrhoden", "modes_list": ["bus"]}, "geometry": {"type": "Point", "coordinates": [9.413150009955427, 47.33219305959574]}}, {"id": "948", "type": "Feature", "properties": {"name": "Appenzell, Kreuzstrasse", "lon": 9.462153100803874, "lat": 47.333897748940224, "stop_id": ["8578415.link:913673", "8578415.link:913674"], "lines": [{"line_id": "96-221-6-j24-1", "route_id": "21.TA.96-221-6-j24-1.1.H", "mode": "bus", "line_name": "191"}, {"line_id": "96-221-6-j24-1", "route_id": "29.TA.96-221-6-j24-1.2.H", "mode": "bus", "line_name": "191"}, {"line_id": "96-221-6-j24-1", "route_id": "100.TA.96-221-6-j24-1.6.R", "mode": "bus", "line_name": "191"}, {"line_id": "96-221-6-j24-1", "route_id": "104.TA.96-221-6-j24-1.7.R", "mode": "bus", "line_name": "191"}], "predominant_mode": "bus", "assigned_canton": "Appenzell Innerrhoden", "modes_list": ["bus"]}, "geometry": {"type": "Point", "coordinates": [9.462153110070908, 47.33389775880942]}}, {"id": "949", "type": "Feature", "properties": {"name": "Appenzell, Lank", "lon": 9.39782474125668, "lat": 47.34823937995214, "stop_id": ["8574056.link:1804583", "8574056.link:1804584"], "lines": [{"line_id": "96-221-6-j24-1", "route_id": "61.TA.96-221-6-j24-1.3.H", "mode": "bus", "line_name": "191"}, {"line_id": "96-221-6-j24-1", "route_id": "153.TA.96-221-6-j24-1.8.R", "mode": "bus", "line_name": "191"}], "predominant_mode": "bus", "assigned_canton": "Appenzell Innerrhoden", "modes_list": ["bus"]}, "geometry": {"type": "Point", "coordinates": [9.397824750460785, 47.3482393898465]}}, {"id": "950", "type": "Feature", "properties": {"name": "Appenzell, L\u00e4deli", "lon": 9.454715050831703, "lat": 47.334810959057236, "stop_id": ["8578416.link:1637026", "8578416.link:1637027"], "lines": [{"line_id": "96-221-6-j24-1", "route_id": "100.TA.96-221-6-j24-1.6.R", "mode": "bus", "line_name": "191"}, {"line_id": "96-221-6-j24-1", "route_id": "104.TA.96-221-6-j24-1.7.R", "mode": "bus", "line_name": "191"}, {"line_id": "96-221-6-j24-1", "route_id": "21.TA.96-221-6-j24-1.1.H", "mode": "bus", "line_name": "191"}, {"line_id": "96-221-6-j24-1", "route_id": "29.TA.96-221-6-j24-1.2.H", "mode": "bus", "line_name": "191"}], "predominant_mode": "bus", "assigned_canton": "Appenzell Innerrhoden", "modes_list": ["bus"]}, "geometry": {"type": "Point", "coordinates": [9.454715060091731, 47.3348109689291]}}, {"id": "951", "type": "Feature", "properties": {"name": "Appenzell, Meistersr\u00fcte", "lon": 9.432598531283498, "lat": 47.348708029405, "stop_id": ["8579826.link:1357796", "8579826.link:1357797"], "lines": [{"line_id": "92-B21-j24-1", "route_id": "6.TA.92-B21-j24-1.4.H", "mode": "bus", "line_name": "B21"}, {"line_id": "92-B21-j24-1", "route_id": "4.TA.92-B21-j24-1.3.H", "mode": "bus", "line_name": "B21"}, {"line_id": "92-B21-j24-1", "route_id": "15.TA.92-B21-j24-1.8.R", "mode": "bus", "line_name": "B21"}, {"line_id": "92-B21-j24-1", "route_id": "11.TA.92-B21-j24-1.7.R", "mode": "bus", "line_name": "B21"}], "predominant_mode": "bus", "assigned_canton": "Appenzell Innerrhoden", "modes_list": ["bus"]}, "geometry": {"type": "Point", "coordinates": [9.432598540518816, 47.34870803928837]}}, {"id": "952", "type": "Feature", "properties": {"name": "Appenzell, Mettlenbr\u00fccke", "lon": 9.405640080852061, "lat": 47.33590678982942, "stop_id": ["8574054.link:63173", "8574054.link:63174"], "lines": [{"line_id": "96-221-6-j24-1", "route_id": "153.TA.96-221-6-j24-1.8.R", "mode": "bus", "line_name": "191"}, {"line_id": "96-221-6-j24-1", "route_id": "61.TA.96-221-6-j24-1.3.H", "mode": "bus", "line_name": "191"}], "predominant_mode": "bus", "assigned_canton": "Appenzell Innerrhoden", "modes_list": ["bus"]}, "geometry": {"type": "Point", "coordinates": [9.405640090067468, 47.33590679971739]}}, {"id": "953", "type": "Feature", "properties": {"name": "Appenzell, Moren", "lon": 9.43770994070334, "lat": 47.33108496932486, "stop_id": ["8578418.link:1328287", "8578418.link:1328288"], "lines": [{"line_id": "96-221-6-j24-1", "route_id": "100.TA.96-221-6-j24-1.6.R", "mode": "bus", "line_name": "191"}, {"line_id": "96-221-6-j24-1", "route_id": "21.TA.96-221-6-j24-1.1.H", "mode": "bus", "line_name": "191"}], "predominant_mode": "bus", "assigned_canton": "Appenzell Innerrhoden", "modes_list": ["bus"]}, "geometry": {"type": "Point", "coordinates": [9.43770994994934, 47.33108497920103]}}, {"id": "954", "type": "Feature", "properties": {"name": "Appenzell, Sch\u00f6nenb\u00fcel", "lon": 9.427639830768243, "lat": 47.33314890948331, "stop_id": ["8578425.link:304551", "8578425.link:304552"], "lines": [{"line_id": "96-221-6-j24-1", "route_id": "104.TA.96-221-6-j24-1.7.R", "mode": "bus", "line_name": "191"}, {"line_id": "96-221-6-j24-1", "route_id": "29.TA.96-221-6-j24-1.2.H", "mode": "bus", "line_name": "191"}], "predominant_mode": "bus", "assigned_canton": "Appenzell Innerrhoden", "modes_list": ["bus"]}, "geometry": {"type": "Point", "coordinates": [9.427639840004458, 47.33314891936337]}}, {"id": "955", "type": "Feature", "properties": {"name": "Appenzell, Sonnhalde", "lon": 9.415853930779251, "lat": 47.333599429668745, "stop_id": ["8583201.link:1008498", "8583201.link:1008499", "8583201.link:1519256"], "lines": [{"line_id": "96-221-6-j24-1", "route_id": "21.TA.96-221-6-j24-1.1.H", "mode": "bus", "line_name": "191"}, {"line_id": "96-221-6-j24-1", "route_id": "29.TA.96-221-6-j24-1.2.H", "mode": "bus", "line_name": "191"}, {"line_id": "96-221-6-j24-1", "route_id": "100.TA.96-221-6-j24-1.6.R", "mode": "bus", "line_name": "191"}, {"line_id": "96-221-6-j24-1", "route_id": "104.TA.96-221-6-j24-1.7.R", "mode": "bus", "line_name": "191"}, {"line_id": "96-221-6-j24-1", "route_id": "153.TA.96-221-6-j24-1.8.R", "mode": "bus", "line_name": "191"}], "predominant_mode": "bus", "assigned_canton": "Appenzell Innerrhoden", "modes_list": ["bus"]}, "geometry": {"type": "Point", "coordinates": [9.415853940004677, 47.33359943955273]}}, {"id": "956", "type": "Feature", "properties": {"name": "Appenzell, Steig", "lon": 9.39963934103176, "lat": 47.341409939923736, "stop_id": ["8574055.link:415946", "8574055.link:415947"], "lines": [{"line_id": "96-221-6-j24-1", "route_id": "61.TA.96-221-6-j24-1.3.H", "mode": "bus", "line_name": "191"}, {"line_id": "96-221-6-j24-1", "route_id": "153.TA.96-221-6-j24-1.8.R", "mode": "bus", "line_name": "191"}], "predominant_mode": "bus", "assigned_canton": "Appenzell Innerrhoden", "modes_list": ["bus"]}, "geometry": {"type": "Point", "coordinates": [9.399639350239854, 47.34140994981535]}}, {"id": "957", "type": "Feature", "properties": {"name": "Appenzell, Unterschlatt", "lon": 9.388572091369367, "lat": 47.35174506009768, "stop_id": ["8574057.link:145676", "8574057.link:145677"], "lines": [{"line_id": "96-221-6-j24-1", "route_id": "61.TA.96-221-6-j24-1.3.H", "mode": "bus", "line_name": "191"}, {"line_id": "96-221-6-j24-1", "route_id": "153.TA.96-221-6-j24-1.8.R", "mode": "bus", "line_name": "191"}], "predominant_mode": "bus", "assigned_canton": "Appenzell Innerrhoden", "modes_list": ["bus"]}, "geometry": {"type": "Point", "coordinates": [9.388572100563898, 47.35174506999612]}}, {"id": "958", "type": "Feature", "properties": {"name": "Appenzell, Zentrale", "lon": 9.438859780793535, "lat": 47.33380642930675, "stop_id": ["8578424.link:304563", "8578424.link:304564"], "lines": [{"line_id": "96-221-6-j24-1", "route_id": "104.TA.96-221-6-j24-1.7.R", "mode": "bus", "line_name": "191"}, {"line_id": "96-221-6-j24-1", "route_id": "29.TA.96-221-6-j24-1.2.H", "mode": "bus", "line_name": "191"}], "predominant_mode": "bus", "assigned_canton": "Appenzell Innerrhoden", "modes_list": ["bus"]}, "geometry": {"type": "Point", "coordinates": [9.438859790039633, 47.333806439183405]}}, {"id": "959", "type": "Feature", "properties": {"name": "Appenzell, Ziel", "lon": 9.406897730806458, "lat": 47.33451263980966, "stop_id": ["8578421.link:449241", "8578421.link:449242"], "lines": [{"line_id": "96-221-6-j24-1", "route_id": "61.TA.96-221-6-j24-1.3.H", "mode": "bus", "line_name": "191"}, {"line_id": "96-221-6-j24-1", "route_id": "153.TA.96-221-6-j24-1.8.R", "mode": "bus", "line_name": "191"}, {"line_id": "96-221-6-j24-1", "route_id": "104.TA.96-221-6-j24-1.7.R", "mode": "bus", "line_name": "191"}, {"line_id": "96-221-6-j24-1", "route_id": "100.TA.96-221-6-j24-1.6.R", "mode": "bus", "line_name": "191"}], "predominant_mode": "bus", "assigned_canton": "Appenzell Innerrhoden", "modes_list": ["bus"]}, "geometry": {"type": "Point", "coordinates": [9.40689774002348, 47.334512649696784]}}, {"id": "4243", "type": "Feature", "properties": {"name": "Br\u00fclisau (Kastenbahn)", "lon": 9.456781169568627, "lat": 47.29649745902516, "stop_id": ["8506261.link:pt_8506261"], "lines": [{"line_id": "93-64-Y-j24-1", "route_id": "228.TA.93-64-Y-j24-1.2.R", "mode": "cable car", "line_name": "PB"}, {"line_id": "93-64-Y-j24-1", "route_id": "75.TA.93-64-Y-j24-1.1.H", "mode": "cable car", "line_name": "PB"}], "predominant_mode": "cable car", "assigned_canton": "Appenzell Innerrhoden", "modes_list": ["cable car"]}, "geometry": {"type": "Point", "coordinates": [9.456781178843723, 47.29649746888416]}}, {"id": "4244", "type": "Feature", "properties": {"name": "Br\u00fclisau, Kastenbahn", "lon": 9.456808119574877, "lat": 47.296686329024745, "stop_id": ["8587015.link:1458769", "8587015.link:1458770"], "lines": [{"line_id": "96-221-8-j24-1", "route_id": "61.TA.96-221-8-j24-1.2.R", "mode": "bus", "line_name": "192"}, {"line_id": "96-221-8-j24-1", "route_id": "1.TA.96-221-8-j24-1.1.H", "mode": "bus", "line_name": "192"}], "predominant_mode": "bus", "assigned_canton": "Appenzell Innerrhoden", "modes_list": ["bus"]}, "geometry": {"type": "Point", "coordinates": [9.45680812884993, 47.296686338883795]}}, {"id": "7274", "type": "Feature", "properties": {"name": "Ebenalp", "lon": 9.411577949164501, "lat": 47.28467684973646, "stop_id": ["8506259.link:pt_8506259"], "lines": [{"line_id": "93-274-0-j24-1", "route_id": "243.TA.93-274-0-j24-1.2.R", "mode": "cable car", "line_name": "2740"}, {"line_id": "93-274-0-j24-1", "route_id": "116.TA.93-274-0-j24-1.1.H", "mode": "cable car", "line_name": "2740"}], "predominant_mode": "cable car", "assigned_canton": "Appenzell Innerrhoden", "modes_list": ["cable car"]}, "geometry": {"type": "Point", "coordinates": [9.411577958402821, 47.28467685960609]}}, {"id": "7500", "type": "Feature", "properties": {"name": "Eggerstanden, Kirche", "lon": 9.466644670724467, "lat": 47.33145026886961, "stop_id": ["8578414.link:1646817", "8578414.link:1646826"], "lines": [{"line_id": "96-221-6-j24-1", "route_id": "21.TA.96-221-6-j24-1.1.H", "mode": "bus", "line_name": "191"}, {"line_id": "96-221-6-j24-1", "route_id": "29.TA.96-221-6-j24-1.2.H", "mode": "bus", "line_name": "191"}, {"line_id": "96-221-6-j24-1", "route_id": "100.TA.96-221-6-j24-1.6.R", "mode": "bus", "line_name": "191"}, {"line_id": "96-221-6-j24-1", "route_id": "104.TA.96-221-6-j24-1.7.R", "mode": "bus", "line_name": "191"}], "predominant_mode": "bus", "assigned_canton": "Appenzell Innerrhoden", "modes_list": ["bus"]}, "geometry": {"type": "Point", "coordinates": [9.466644679996385, 47.331450278736604]}}, {"id": "10066", "type": "Feature", "properties": {"name": "Gonten", "lon": 9.347330440577077, "lat": 47.328180710746885, "stop_id": ["8506285.link:238489", "8506285.link:238490"], "lines": [{"line_id": "91-23-A-j24-1", "route_id": "153.TA.91-23-A-j24-1.42.H", "mode": "rail", "line_name": "S23"}, {"line_id": "91-23-A-j24-1", "route_id": "97.TA.91-23-A-j24-1.39.H", "mode": "rail", "line_name": "S23"}, {"line_id": "91-23-A-j24-1", "route_id": "225.TA.91-23-A-j24-1.44.H", "mode": "rail", "line_name": "S23"}, {"line_id": "91-23-A-j24-1", "route_id": "78.TA.91-23-A-j24-1.38.H", "mode": "rail", "line_name": "S23"}, {"line_id": "91-23-A-j24-1", "route_id": "228.TA.91-23-A-j24-1.45.H", "mode": "rail", "line_name": "S23"}, {"line_id": "91-23-A-j24-1", "route_id": "169.TA.91-23-A-j24-1.43.H", "mode": "rail", "line_name": "S23"}, {"line_id": "91-23-A-j24-1", "route_id": "154.TA.91-23-A-j24-1.42.H", "mode": "rail", "line_name": "S23"}, {"line_id": "91-23-A-j24-1", "route_id": "316.TA.91-23-A-j24-1.48.R", "mode": "rail", "line_name": "S23"}, {"line_id": "91-23-A-j24-1", "route_id": "383.TA.91-23-A-j24-1.54.R", "mode": "rail", "line_name": "S23"}, {"line_id": "91-23-A-j24-1", "route_id": "397.TA.91-23-A-j24-1.55.R", "mode": "rail", "line_name": "S23"}, {"line_id": "91-23-A-j24-1", "route_id": "431.TA.91-23-A-j24-1.57.R", "mode": "rail", "line_name": "S23"}, {"line_id": "91-23-A-j24-1", "route_id": "325.TA.91-23-A-j24-1.51.R", "mode": "rail", "line_name": "S23"}, {"line_id": "91-23-A-j24-1", "route_id": "318.TA.91-23-A-j24-1.49.R", "mode": "rail", "line_name": "S23"}, {"line_id": "91-23-A-j24-1", "route_id": "349.TA.91-23-A-j24-1.52.R", "mode": "rail", "line_name": "S23"}, {"line_id": "91-23-A-j24-1", "route_id": "320.TA.91-23-A-j24-1.50.R", "mode": "rail", "line_name": "S23"}, {"line_id": "91-23-A-j24-1", "route_id": "381.TA.91-23-A-j24-1.53.R", "mode": "rail", "line_name": "S23"}], "predominant_mode": "rail", "assigned_canton": "Appenzell Innerrhoden", "modes_list": ["rail"]}, "geometry": {"type": "Point", "coordinates": [9.347330449742289, 47.32818072065103]}}, {"id": "10067", "type": "Feature", "properties": {"name": "Gontenbad", "lon": 9.372438350700797, "lat": 47.33166337035184, "stop_id": ["8506271.link:1482196", "8506271.link:1482197"], "lines": [{"line_id": "91-23-A-j24-1", "route_id": "153.TA.91-23-A-j24-1.42.H", "mode": "rail", "line_name": "S23"}, {"line_id": "91-23-A-j24-1", "route_id": "97.TA.91-23-A-j24-1.39.H", "mode": "rail", "line_name": "S23"}, {"line_id": "91-23-A-j24-1", "route_id": "225.TA.91-23-A-j24-1.44.H", "mode": "rail", "line_name": "S23"}, {"line_id": "91-23-A-j24-1", "route_id": "78.TA.91-23-A-j24-1.38.H", "mode": "rail", "line_name": "S23"}, {"line_id": "91-23-A-j24-1", "route_id": "228.TA.91-23-A-j24-1.45.H", "mode": "rail", "line_name": "S23"}, {"line_id": "91-23-A-j24-1", "route_id": "169.TA.91-23-A-j24-1.43.H", "mode": "rail", "line_name": "S23"}, {"line_id": "91-23-A-j24-1", "route_id": "154.TA.91-23-A-j24-1.42.H", "mode": "rail", "line_name": "S23"}, {"line_id": "91-23-A-j24-1", "route_id": "316.TA.91-23-A-j24-1.48.R", "mode": "rail", "line_name": "S23"}, {"line_id": "91-23-A-j24-1", "route_id": "383.TA.91-23-A-j24-1.54.R", "mode": "rail", "line_name": "S23"}, {"line_id": "91-23-A-j24-1", "route_id": "397.TA.91-23-A-j24-1.55.R", "mode": "rail", "line_name": "S23"}, {"line_id": "91-23-A-j24-1", "route_id": "431.TA.91-23-A-j24-1.57.R", "mode": "rail", "line_name": "S23"}, {"line_id": "91-23-A-j24-1", "route_id": "325.TA.91-23-A-j24-1.51.R", "mode": "rail", "line_name": "S23"}, {"line_id": "91-23-A-j24-1", "route_id": "318.TA.91-23-A-j24-1.49.R", "mode": "rail", "line_name": "S23"}, {"line_id": "91-23-A-j24-1", "route_id": "349.TA.91-23-A-j24-1.52.R", "mode": "rail", "line_name": "S23"}, {"line_id": "91-23-A-j24-1", "route_id": "320.TA.91-23-A-j24-1.50.R", "mode": "rail", "line_name": "S23"}, {"line_id": "91-23-A-j24-1", "route_id": "381.TA.91-23-A-j24-1.53.R", "mode": "rail", "line_name": "S23"}], "predominant_mode": "rail", "assigned_canton": "Appenzell Innerrhoden", "modes_list": ["rail"]}, "geometry": {"type": "Point", "coordinates": [9.37243835988761, 47.331663380249054]}}, {"id": "11084", "type": "Feature", "properties": {"name": "Haslen AI, Dorf", "lon": 9.367506601913112, "lat": 47.368418190428685, "stop_id": ["8574062.link:1973035", "8574062.link:1973036"], "lines": [{"line_id": "96-221-6-j24-1", "route_id": "61.TA.96-221-6-j24-1.3.H", "mode": "bus", "line_name": "191"}, {"line_id": "96-221-6-j24-1", "route_id": "153.TA.96-221-6-j24-1.8.R", "mode": "bus", "line_name": "191"}], "predominant_mode": "bus", "assigned_canton": "Appenzell Innerrhoden", "modes_list": ["bus"]}, "geometry": {"type": "Point", "coordinates": [9.367506611082849, 47.368418200339065]}}, {"id": "11085", "type": "Feature", "properties": {"name": "Haslen AI, H\u00fcsli", "lon": 9.366042352082959, "lat": 47.37357119045161, "stop_id": ["8574063.link:443506", "8574063.link:443507"], "lines": [{"line_id": "96-221-6-j24-1", "route_id": "61.TA.96-221-6-j24-1.3.H", "mode": "bus", "line_name": "191"}, {"line_id": "96-221-6-j24-1", "route_id": "153.TA.96-221-6-j24-1.8.R", "mode": "bus", "line_name": "191"}], "predominant_mode": "bus", "assigned_canton": "Appenzell Innerrhoden", "modes_list": ["bus"]}, "geometry": {"type": "Point", "coordinates": [9.3660423612496, 47.37357120036406]}}, {"id": "11086", "type": "Feature", "properties": {"name": "Haslen AI, Kastb\u00fchl", "lon": 9.373345652283948, "lat": 47.37957530033651, "stop_id": ["8574064.link:443526", "8574064.link:443527"], "lines": [{"line_id": "96-221-6-j24-1", "route_id": "61.TA.96-221-6-j24-1.3.H", "mode": "bus", "line_name": "191"}, {"line_id": "96-221-6-j24-1", "route_id": "153.TA.96-221-6-j24-1.8.R", "mode": "bus", "line_name": "191"}], "predominant_mode": "bus", "assigned_canton": "Appenzell Innerrhoden", "modes_list": ["bus"]}, "geometry": {"type": "Point", "coordinates": [9.373345661455124, 47.37957531024848]}}, {"id": "11087", "type": "Feature", "properties": {"name": "Haslen AI, Linde", "lon": 9.368171351790473, "lat": 47.36470066041832, "stop_id": ["8574061.link:1973028"], "lines": [{"line_id": "96-221-6-j24-1", "route_id": "153.TA.96-221-6-j24-1.8.R", "mode": "bus", "line_name": "191"}], "predominant_mode": "bus", "assigned_canton": "Appenzell Innerrhoden", "modes_list": ["bus"]}, "geometry": {"type": "Point", "coordinates": [9.368171360962085, 47.36470067032729]}}, {"id": "11088", "type": "Feature", "properties": {"name": "Haslen AI, List", "lon": 9.368288131753532, "lat": 47.36358109041656, "stop_id": ["8574060.link:1501378"], "lines": [{"line_id": "96-221-6-j24-1", "route_id": "61.TA.96-221-6-j24-1.3.H", "mode": "bus", "line_name": "191"}], "predominant_mode": "bus", "assigned_canton": "Appenzell Innerrhoden", "modes_list": ["bus"]}, "geometry": {"type": "Point", "coordinates": [9.368288140925644, 47.363581100325185]}}, {"id": "11089", "type": "Feature", "properties": {"name": "Haslen AI, Schiessegg", "lon": 9.369114581637783, "lat": 47.36007011040359, "stop_id": ["8574059.link:442884", "8574059.link:442885"], "lines": [{"line_id": "96-221-6-j24-1", "route_id": "61.TA.96-221-6-j24-1.3.H", "mode": "bus", "line_name": "191"}, {"line_id": "96-221-6-j24-1", "route_id": "153.TA.96-221-6-j24-1.8.R", "mode": "bus", "line_name": "191"}], "predominant_mode": "bus", "assigned_canton": "Appenzell Innerrhoden", "modes_list": ["bus"]}, "geometry": {"type": "Point", "coordinates": [9.369114590811845, 47.36007012031083]}}, {"id": "11090", "type": "Feature", "properties": {"name": "Haslen AI, Tanne", "lon": 9.37662450148874, "lat": 47.35548176028554, "stop_id": ["8574058.link:442872", "8574058.link:442873"], "lines": [{"line_id": "96-221-6-j24-1", "route_id": "61.TA.96-221-6-j24-1.3.H", "mode": "bus", "line_name": "191"}, {"line_id": "96-221-6-j24-1", "route_id": "153.TA.96-221-6-j24-1.8.R", "mode": "bus", "line_name": "191"}], "predominant_mode": "bus", "assigned_canton": "Appenzell Innerrhoden", "modes_list": ["bus"]}, "geometry": {"type": "Point", "coordinates": [9.376624510671181, 47.35548177018895]}}, {"id": "11651", "type": "Feature", "properties": {"name": "Hirschberg", "lon": 9.422860790708393, "lat": 47.33138329955852, "stop_id": ["8506380.link:71191", "8506380.link:71192"], "lines": [{"line_id": "91-21-j24-1", "route_id": "225.TA.91-21-j24-1.5.H", "mode": "rail", "line_name": "S21"}, {"line_id": "91-21-j24-1", "route_id": "146.TA.91-21-j24-1.5.H", "mode": "rail", "line_name": "S21"}, {"line_id": "91-21-j24-1", "route_id": "212.TA.91-21-j24-1.5.H", "mode": "rail", "line_name": "S21"}, {"line_id": "91-20-E-j24-1", "route_id": "7.TA.91-20-E-j24-1.1.H", "mode": "rail", "line_name": "S20"}, {"line_id": "91-21-j24-1", "route_id": "152.TA.91-21-j24-1.5.H", "mode": "rail", "line_name": "S21"}, {"line_id": "91-21-j24-1", "route_id": "181.TA.91-21-j24-1.5.H", "mode": "rail", "line_name": "S21"}, {"line_id": "91-21-j24-1", "route_id": "108.TA.91-21-j24-1.35.H", "mode": "rail", "line_name": "S21"}, {"line_id": "91-21-j24-1", "route_id": "138.TA.91-21-j24-1.4.H", "mode": "rail", "line_name": "S21"}, {"line_id": "91-21-j24-1", "route_id": "441.TA.91-21-j24-1.10.R", "mode": "rail", "line_name": "S21"}, {"line_id": "91-20-E-j24-1", "route_id": "15.TA.91-20-E-j24-1.3.R", "mode": "rail", "line_name": "S20"}, {"line_id": "91-21-j24-1", "route_id": "401.TA.91-21-j24-1.8.R", "mode": "rail", "line_name": "S21"}, {"line_id": "91-21-j24-1", "route_id": "434.TA.91-21-j24-1.10.R", "mode": "rail", "line_name": "S21"}, {"line_id": "91-21-j24-1", "route_id": "453.TA.91-21-j24-1.11.R", "mode": "rail", "line_name": "S21"}, {"line_id": "91-21-j24-1", "route_id": "299.TA.91-21-j24-1.40.R", "mode": "rail", "line_name": "S21"}, {"line_id": "91-21-j24-1", "route_id": "307.TA.91-21-j24-1.41.R", "mode": "rail", "line_name": "S21"}, {"line_id": "91-21-j24-1", "route_id": "449.TA.91-21-j24-1.11.R", "mode": "rail", "line_name": "S21"}, {"line_id": "91-20-E-j24-1", "route_id": "13.TA.91-20-E-j24-1.2.R", "mode": "rail", "line_name": "S20"}], "predominant_mode": "rail", "assigned_canton": "Appenzell Innerrhoden", "modes_list": ["rail"]}, "geometry": {"type": "Point", "coordinates": [9.422860799940908, 47.33138330943952]}}, {"id": "11778", "type": "Feature", "properties": {"name": "Hoher Kasten", "lon": 9.484943359157501, "lat": 47.283756688582095, "stop_id": ["8506262.link:pt_8506262"], "lines": [{"line_id": "93-64-Y-j24-1", "route_id": "228.TA.93-64-Y-j24-1.2.R", "mode": "cable car", "line_name": "PB"}, {"line_id": "93-64-Y-j24-1", "route_id": "75.TA.93-64-Y-j24-1.1.H", "mode": "cable car", "line_name": "PB"}], "predominant_mode": "cable car", "assigned_canton": "Appenzell Innerrhoden", "modes_list": ["cable car"]}, "geometry": {"type": "Point", "coordinates": [9.484943368462327, 47.28375669842795]}}, {"id": "12542", "type": "Feature", "properties": {"name": "Jakobsbad", "lon": 9.328178360302985, "lat": 47.32008203104829, "stop_id": ["8506284.link:1482258", "8506284.link:1482259"], "lines": [{"line_id": "91-23-A-j24-1", "route_id": "153.TA.91-23-A-j24-1.42.H", "mode": "rail", "line_name": "S23"}, {"line_id": "91-23-A-j24-1", "route_id": "97.TA.91-23-A-j24-1.39.H", "mode": "rail", "line_name": "S23"}, {"line_id": "91-23-A-j24-1", "route_id": "225.TA.91-23-A-j24-1.44.H", "mode": "rail", "line_name": "S23"}, {"line_id": "91-23-A-j24-1", "route_id": "78.TA.91-23-A-j24-1.38.H", "mode": "rail", "line_name": "S23"}, {"line_id": "91-23-A-j24-1", "route_id": "228.TA.91-23-A-j24-1.45.H", "mode": "rail", "line_name": "S23"}, {"line_id": "91-23-A-j24-1", "route_id": "169.TA.91-23-A-j24-1.43.H", "mode": "rail", "line_name": "S23"}, {"line_id": "91-23-A-j24-1", "route_id": "154.TA.91-23-A-j24-1.42.H", "mode": "rail", "line_name": "S23"}, {"line_id": "91-23-A-j24-1", "route_id": "316.TA.91-23-A-j24-1.48.R", "mode": "rail", "line_name": "S23"}, {"line_id": "91-23-A-j24-1", "route_id": "383.TA.91-23-A-j24-1.54.R", "mode": "rail", "line_name": "S23"}, {"line_id": "91-23-A-j24-1", "route_id": "397.TA.91-23-A-j24-1.55.R", "mode": "rail", "line_name": "S23"}, {"line_id": "91-23-A-j24-1", "route_id": "431.TA.91-23-A-j24-1.57.R", "mode": "rail", "line_name": "S23"}, {"line_id": "91-23-A-j24-1", "route_id": "325.TA.91-23-A-j24-1.51.R", "mode": "rail", "line_name": "S23"}, {"line_id": "91-23-A-j24-1", "route_id": "318.TA.91-23-A-j24-1.49.R", "mode": "rail", "line_name": "S23"}, {"line_id": "91-23-A-j24-1", "route_id": "349.TA.91-23-A-j24-1.52.R", "mode": "rail", "line_name": "S23"}, {"line_id": "91-23-A-j24-1", "route_id": "320.TA.91-23-A-j24-1.50.R", "mode": "rail", "line_name": "S23"}, {"line_id": "91-23-A-j24-1", "route_id": "381.TA.91-23-A-j24-1.53.R", "mode": "rail", "line_name": "S23"}], "predominant_mode": "rail", "assigned_canton": "Appenzell Innerrhoden", "modes_list": ["rail"]}, "geometry": {"type": "Point", "coordinates": [9.328178369453529, 47.32008204095585]}}, {"id": "12543", "type": "Feature", "properties": {"name": "Jakobsbad (Kronbergbahn)", "lon": 9.328340050297621, "lat": 47.319917611045746, "stop_id": ["8506266.link:pt_8506266"], "lines": [{"line_id": "93-94-Y-j24-1", "route_id": "94.TA.93-94-Y-j24-1.2.R", "mode": "cable car", "line_name": "PB"}, {"line_id": "93-94-Y-j24-1", "route_id": "44.TA.93-94-Y-j24-1.1.H", "mode": "cable car", "line_name": "PB"}], "predominant_mode": "cable car", "assigned_canton": "Appenzell Innerrhoden", "modes_list": ["cable car"]}, "geometry": {"type": "Point", "coordinates": [9.328340059448363, 47.3199176209532]}}, {"id": "13445", "type": "Feature", "properties": {"name": "Kronberg", "lon": 9.327926829360916, "lat": 47.291519721052424, "stop_id": ["8506265.link:pt_8506265"], "lines": [{"line_id": "93-94-Y-j24-1", "route_id": "94.TA.93-94-Y-j24-1.2.R", "mode": "cable car", "line_name": "PB"}, {"line_id": "93-94-Y-j24-1", "route_id": "44.TA.93-94-Y-j24-1.1.H", "mode": "cable car", "line_name": "PB"}], "predominant_mode": "cable car", "assigned_canton": "Appenzell Innerrhoden", "modes_list": ["cable car"]}, "geometry": {"type": "Point", "coordinates": [9.327926838520902, 47.291519730950895]}}, {"id": "19284", "type": "Feature", "properties": {"name": "Oberegg AI, B\u00e4umen", "lon": 9.538572783488767, "lat": 47.414454897735375, "stop_id": ["8581403.link:809550", "8581403.link:809551"], "lines": [{"line_id": "96-224-8-j24-1", "route_id": "3.TA.96-224-8-j24-1.1.H", "mode": "bus", "line_name": "229"}, {"line_id": "96-224-8-j24-1", "route_id": "14.TA.96-224-8-j24-1.3.R", "mode": "bus", "line_name": "229"}, {"line_id": "96-224-8-j24-1", "route_id": "7.TA.96-224-8-j24-1.2.R", "mode": "bus", "line_name": "229"}], "predominant_mode": "bus", "assigned_canton": "Appenzell Innerrhoden", "modes_list": ["bus"]}, "geometry": {"type": "Point", "coordinates": [9.538572792795927, 47.41445490760485]}}, {"id": "19285", "type": "Feature", "properties": {"name": "Oberegg AI, Eugst", "lon": 9.543073343660208, "lat": 47.41959732766429, "stop_id": ["8574148.link:11712", "8574148.link:11713"], "lines": [{"line_id": "96-224-8-j24-1", "route_id": "3.TA.96-224-8-j24-1.1.H", "mode": "bus", "line_name": "229"}, {"line_id": "96-224-8-j24-1", "route_id": "14.TA.96-224-8-j24-1.3.R", "mode": "bus", "line_name": "229"}, {"line_id": "96-224-8-j24-1", "route_id": "7.TA.96-224-8-j24-1.2.R", "mode": "bus", "line_name": "229"}], "predominant_mode": "bus", "assigned_canton": "Appenzell Innerrhoden", "modes_list": ["bus"]}, "geometry": {"type": "Point", "coordinates": [9.543073352969547, 47.41959733753384]}}, {"id": "19286", "type": "Feature", "properties": {"name": "Oberegg AI, Haggen", "lon": 9.525116023203767, "lat": 47.40595603794746, "stop_id": ["8574150.link:1367164", "8574150.link:1367165"], "lines": [{"line_id": "96-224-8-j24-1", "route_id": "3.TA.96-224-8-j24-1.1.H", "mode": "bus", "line_name": "229"}, {"line_id": "96-224-8-j24-1", "route_id": "14.TA.96-224-8-j24-1.3.R", "mode": "bus", "line_name": "229"}, {"line_id": "96-224-8-j24-1", "route_id": "7.TA.96-224-8-j24-1.2.R", "mode": "bus", "line_name": "229"}], "predominant_mode": "bus", "assigned_canton": "Appenzell Innerrhoden", "modes_list": ["bus"]}, "geometry": {"type": "Point", "coordinates": [9.525116032501955, 47.40595604781872]}}, {"id": "19287", "type": "Feature", "properties": {"name": "Oberegg AI, Honegg", "lon": 9.518890693005265, "lat": 47.40000966804564, "stop_id": ["8582242.link:1367184", "8582242.link:1367185"], "lines": [{"line_id": "96-224-8-j24-1", "route_id": "3.TA.96-224-8-j24-1.1.H", "mode": "bus", "line_name": "229"}, {"line_id": "96-224-8-j24-1", "route_id": "14.TA.96-224-8-j24-1.3.R", "mode": "bus", "line_name": "229"}, {"line_id": "96-224-8-j24-1", "route_id": "7.TA.96-224-8-j24-1.2.R", "mode": "bus", "line_name": "229"}], "predominant_mode": "bus", "assigned_canton": "Appenzell Innerrhoden", "modes_list": ["bus"]}, "geometry": {"type": "Point", "coordinates": [9.5188907023, 47.4000096779171]}}, {"id": "19288", "type": "Feature", "properties": {"name": "Oberegg AI, Landmark", "lon": 9.510186022861356, "lat": 47.39573491818278, "stop_id": ["8582241.link:1077339", "8582241.link:1077340"], "lines": [{"line_id": "96-224-8-j24-1", "route_id": "3.TA.96-224-8-j24-1.1.H", "mode": "bus", "line_name": "229"}, {"line_id": "92-333-j24-1", "route_id": "9.TA.92-333-j24-1.6.R", "mode": "bus", "line_name": "333"}, {"line_id": "96-224-8-j24-1", "route_id": "7.TA.96-224-8-j24-1.2.R", "mode": "bus", "line_name": "229"}, {"line_id": "96-224-8-j24-1", "route_id": "14.TA.96-224-8-j24-1.3.R", "mode": "bus", "line_name": "229"}, {"line_id": "92-333-j24-1", "route_id": "3.TA.92-333-j24-1.3.H", "mode": "bus", "line_name": "333"}], "predominant_mode": "bus", "assigned_canton": "Appenzell Innerrhoden", "modes_list": ["bus"]}, "geometry": {"type": "Point", "coordinates": [9.510186032149841, 47.395734928055745]}}, {"id": "19289", "type": "Feature", "properties": {"name": "Oberegg AI, Post", "lon": 9.552424803746467, "lat": 47.422125807517034, "stop_id": ["8506765.link:606492", "8506765.link:606493", "8506765.link:809495", "8506765.link:854498", "8506765.link:854499"], "lines": [{"line_id": "96-225-0-j24-1", "route_id": "16.TA.96-225-0-j24-1.8.R", "mode": "bus", "line_name": "228"}, {"line_id": "96-224-6-j24-1", "route_id": "20.TA.96-224-6-j24-1.4.R", "mode": "bus", "line_name": "226"}, {"line_id": "96-224-7-j24-1", "route_id": "13.TA.96-224-7-j24-1.6.R", "mode": "bus", "line_name": "227"}, {"line_id": "96-224-6-j24-1", "route_id": "24.TA.96-224-6-j24-1.5.R", "mode": "bus", "line_name": "226"}, {"line_id": "96-225-0-j24-1", "route_id": "13.TA.96-225-0-j24-1.8.R", "mode": "bus", "line_name": "228"}, {"line_id": "96-224-6-j24-1", "route_id": "36.TA.96-224-6-j24-1.6.R", "mode": "bus", "line_name": "226"}, {"line_id": "96-224-6-j24-1", "route_id": "19.TA.96-224-6-j24-1.3.R", "mode": "bus", "line_name": "226"}, {"line_id": "96-224-6-j24-1", "route_id": "1.TA.96-224-6-j24-1.1.H", "mode": "bus", "line_name": "226"}, {"line_id": "96-225-0-j24-1", "route_id": "1.TA.96-225-0-j24-1.5.H", "mode": "bus", "line_name": "228"}, {"line_id": "96-224-6-j24-1", "route_id": "17.TA.96-224-6-j24-1.2.H", "mode": "bus", "line_name": "226"}, {"line_id": "96-224-7-j24-1", "route_id": "2.TA.96-224-7-j24-1.2.H", "mode": "bus", "line_name": "227"}, {"line_id": "96-224-6-j24-1", "route_id": "2.TA.96-224-6-j24-1.1.H", "mode": "bus", "line_name": "226"}, {"line_id": "96-224-8-j24-1", "route_id": "3.TA.96-224-8-j24-1.1.H", "mode": "bus", "line_name": "229"}, {"line_id": "96-225-0-j24-1", "route_id": "1.TA.96-225-0-j24-1.5.H", "mode": "bus", "line_name": "228"}, {"line_id": "96-224-8-j24-1", "route_id": "14.TA.96-224-8-j24-1.3.R", "mode": "bus", "line_name": "229"}, {"line_id": "96-225-0-j24-1", "route_id": "16.TA.96-225-0-j24-1.8.R", "mode": "bus", "line_name": "228"}, {"line_id": "96-224-8-j24-1", "route_id": "7.TA.96-224-8-j24-1.2.R", "mode": "bus", "line_name": "229"}, {"line_id": "96-225-0-j24-1", "route_id": "13.TA.96-225-0-j24-1.8.R", "mode": "bus", "line_name": "228"}, {"line_id": "96-225-0-j24-1", "route_id": "1.TA.96-225-0-j24-1.5.H", "mode": "bus", "line_name": "228"}, {"line_id": "96-225-0-j24-1", "route_id": "16.TA.96-225-0-j24-1.8.R", "mode": "bus", "line_name": "228"}, {"line_id": "96-225-0-j24-1", "route_id": "13.TA.96-225-0-j24-1.8.R", "mode": "bus", "line_name": "228"}], "predominant_mode": "bus", "assigned_canton": "Appenzell Innerrhoden", "modes_list": ["bus"]}, "geometry": {"type": "Point", "coordinates": [9.55242481306321, 47.422125817384284]}}, {"id": "19290", "type": "Feature", "properties": {"name": "Oberegg AI, Riethof", "lon": 9.546666603949138, "lat": 47.42829453760739, "stop_id": ["8574125.link:11696", "8574125.link:11697"], "lines": [{"line_id": "96-224-8-j24-1", "route_id": "14.TA.96-224-8-j24-1.3.R", "mode": "bus", "line_name": "229"}, {"line_id": "96-225-0-j24-1", "route_id": "16.TA.96-225-0-j24-1.8.R", "mode": "bus", "line_name": "228"}, {"line_id": "96-224-6-j24-1", "route_id": "20.TA.96-224-6-j24-1.4.R", "mode": "bus", "line_name": "226"}, {"line_id": "96-224-8-j24-1", "route_id": "7.TA.96-224-8-j24-1.2.R", "mode": "bus", "line_name": "229"}, {"line_id": "96-224-7-j24-1", "route_id": "13.TA.96-224-7-j24-1.6.R", "mode": "bus", "line_name": "227"}, {"line_id": "96-224-6-j24-1", "route_id": "24.TA.96-224-6-j24-1.5.R", "mode": "bus", "line_name": "226"}, {"line_id": "96-225-0-j24-1", "route_id": "13.TA.96-225-0-j24-1.8.R", "mode": "bus", "line_name": "228"}, {"line_id": "96-224-6-j24-1", "route_id": "36.TA.96-224-6-j24-1.6.R", "mode": "bus", "line_name": "226"}, {"line_id": "96-224-6-j24-1", "route_id": "19.TA.96-224-6-j24-1.3.R", "mode": "bus", "line_name": "226"}, {"line_id": "96-224-6-j24-1", "route_id": "1.TA.96-224-6-j24-1.1.H", "mode": "bus", "line_name": "226"}, {"line_id": "96-224-8-j24-1", "route_id": "3.TA.96-224-8-j24-1.1.H", "mode": "bus", "line_name": "229"}, {"line_id": "96-224-6-j24-1", "route_id": "17.TA.96-224-6-j24-1.2.H", "mode": "bus", "line_name": "226"}, {"line_id": "96-224-7-j24-1", "route_id": "2.TA.96-224-7-j24-1.2.H", "mode": "bus", "line_name": "227"}, {"line_id": "96-224-6-j24-1", "route_id": "2.TA.96-224-6-j24-1.1.H", "mode": "bus", "line_name": "226"}], "predominant_mode": "bus", "assigned_canton": "Appenzell Innerrhoden", "modes_list": ["bus"]}, "geometry": {"type": "Point", "coordinates": [9.546666613258578, 47.42829454747838]}}, {"id": "19291", "type": "Feature", "properties": {"name": "Oberegg AI, Rutlenstrasse", "lon": 9.549505283797977, "lat": 47.423706037562894, "stop_id": ["8580720.link:1888498", "8580720.link:1888499"], "lines": [{"line_id": "96-224-8-j24-1", "route_id": "14.TA.96-224-8-j24-1.3.R", "mode": "bus", "line_name": "229"}, {"line_id": "96-225-0-j24-1", "route_id": "16.TA.96-225-0-j24-1.8.R", "mode": "bus", "line_name": "228"}, {"line_id": "96-224-6-j24-1", "route_id": "20.TA.96-224-6-j24-1.4.R", "mode": "bus", "line_name": "226"}, {"line_id": "96-224-8-j24-1", "route_id": "7.TA.96-224-8-j24-1.2.R", "mode": "bus", "line_name": "229"}, {"line_id": "96-224-7-j24-1", "route_id": "13.TA.96-224-7-j24-1.6.R", "mode": "bus", "line_name": "227"}, {"line_id": "96-224-6-j24-1", "route_id": "24.TA.96-224-6-j24-1.5.R", "mode": "bus", "line_name": "226"}, {"line_id": "96-225-0-j24-1", "route_id": "13.TA.96-225-0-j24-1.8.R", "mode": "bus", "line_name": "228"}, {"line_id": "96-224-6-j24-1", "route_id": "36.TA.96-224-6-j24-1.6.R", "mode": "bus", "line_name": "226"}, {"line_id": "96-224-6-j24-1", "route_id": "19.TA.96-224-6-j24-1.3.R", "mode": "bus", "line_name": "226"}, {"line_id": "96-224-6-j24-1", "route_id": "1.TA.96-224-6-j24-1.1.H", "mode": "bus", "line_name": "226"}, {"line_id": "96-224-8-j24-1", "route_id": "3.TA.96-224-8-j24-1.1.H", "mode": "bus", "line_name": "229"}, {"line_id": "96-224-6-j24-1", "route_id": "17.TA.96-224-6-j24-1.2.H", "mode": "bus", "line_name": "226"}, {"line_id": "96-224-7-j24-1", "route_id": "2.TA.96-224-7-j24-1.2.H", "mode": "bus", "line_name": "227"}, {"line_id": "96-224-6-j24-1", "route_id": "2.TA.96-224-6-j24-1.1.H", "mode": "bus", "line_name": "226"}], "predominant_mode": "bus", "assigned_canton": "Appenzell Innerrhoden", "modes_list": ["bus"]}, "geometry": {"type": "Point", "coordinates": [9.549505293111565, 47.42370604743162]}}, {"id": "19292", "type": "Feature", "properties": {"name": "Oberegg AI, Sonderegg", "lon": 9.587000963777301, "lat": 47.42278221697282, "stop_id": ["8574130.link:236338", "8574130.link:236339"], "lines": [{"line_id": "96-224-6-j24-1", "route_id": "24.TA.96-224-6-j24-1.5.R", "mode": "bus", "line_name": "226"}, {"line_id": "96-224-6-j24-1", "route_id": "36.TA.96-224-6-j24-1.6.R", "mode": "bus", "line_name": "226"}, {"line_id": "96-224-6-j24-1", "route_id": "17.TA.96-224-6-j24-1.2.H", "mode": "bus", "line_name": "226"}], "predominant_mode": "bus", "assigned_canton": "Appenzell Innerrhoden", "modes_list": ["bus"]}, "geometry": {"type": "Point", "coordinates": [9.587000973124445, 47.42278222682899]}}, {"id": "19293", "type": "Feature", "properties": {"name": "Oberegg AI, St. Anton", "lon": 9.540019073368438, "lat": 47.41080748771275, "stop_id": ["8574149.link:997705", "8574149.link:997706"], "lines": [{"line_id": "96-224-8-j24-1", "route_id": "3.TA.96-224-8-j24-1.1.H", "mode": "bus", "line_name": "229"}, {"line_id": "96-225-0-j24-1", "route_id": "16.TA.96-225-0-j24-1.8.R", "mode": "bus", "line_name": "228"}, {"line_id": "96-225-0-j24-1", "route_id": "13.TA.96-225-0-j24-1.8.R", "mode": "bus", "line_name": "228"}, {"line_id": "96-225-0-j24-1", "route_id": "1.TA.96-225-0-j24-1.5.H", "mode": "bus", "line_name": "228"}, {"line_id": "96-224-8-j24-1", "route_id": "14.TA.96-224-8-j24-1.3.R", "mode": "bus", "line_name": "229"}, {"line_id": "96-224-8-j24-1", "route_id": "7.TA.96-224-8-j24-1.2.R", "mode": "bus", "line_name": "229"}], "predominant_mode": "bus", "assigned_canton": "Appenzell Innerrhoden", "modes_list": ["bus"]}, "geometry": {"type": "Point", "coordinates": [9.540019082678176, 47.41080749758063]}}, {"id": "19294", "type": "Feature", "properties": {"name": "Oberegg AI, St. Anton Kapelle", "lon": 9.53512325334035, "lat": 47.409998947789816, "stop_id": ["8506860.link:997709", "8506860.link:997710"], "lines": [{"line_id": "96-224-8-j24-1", "route_id": "3.TA.96-224-8-j24-1.1.H", "mode": "bus", "line_name": "229"}, {"line_id": "96-224-8-j24-1", "route_id": "14.TA.96-224-8-j24-1.3.R", "mode": "bus", "line_name": "229"}, {"line_id": "96-224-8-j24-1", "route_id": "7.TA.96-224-8-j24-1.2.R", "mode": "bus", "line_name": "229"}], "predominant_mode": "bus", "assigned_canton": "Appenzell Innerrhoden", "modes_list": ["bus"]}, "geometry": {"type": "Point", "coordinates": [9.535123262646021, 47.40999895765903]}}, {"id": "19295", "type": "Feature", "properties": {"name": "Oberegg AI, Unterdorf", "lon": 9.554032793796589, "lat": 47.423627027491655, "stop_id": ["8574126.link:917362", "8574126.link:917363"], "lines": [{"line_id": "96-224-6-j24-1", "route_id": "20.TA.96-224-6-j24-1.4.R", "mode": "bus", "line_name": "226"}, {"line_id": "96-224-7-j24-1", "route_id": "13.TA.96-224-7-j24-1.6.R", "mode": "bus", "line_name": "227"}, {"line_id": "96-224-6-j24-1", "route_id": "24.TA.96-224-6-j24-1.5.R", "mode": "bus", "line_name": "226"}, {"line_id": "96-224-6-j24-1", "route_id": "36.TA.96-224-6-j24-1.6.R", "mode": "bus", "line_name": "226"}, {"line_id": "96-224-6-j24-1", "route_id": "19.TA.96-224-6-j24-1.3.R", "mode": "bus", "line_name": "226"}, {"line_id": "96-224-6-j24-1", "route_id": "1.TA.96-224-6-j24-1.1.H", "mode": "bus", "line_name": "226"}, {"line_id": "96-224-6-j24-1", "route_id": "2.TA.96-224-6-j24-1.1.H", "mode": "bus", "line_name": "226"}, {"line_id": "96-224-6-j24-1", "route_id": "17.TA.96-224-6-j24-1.2.H", "mode": "bus", "line_name": "226"}, {"line_id": "96-224-7-j24-1", "route_id": "2.TA.96-224-7-j24-1.2.H", "mode": "bus", "line_name": "227"}], "predominant_mode": "bus", "assigned_canton": "Appenzell Innerrhoden", "modes_list": ["bus"]}, "geometry": {"type": "Point", "coordinates": [9.554032803114229, 47.42362703735884]}}, {"id": "19296", "type": "Feature", "properties": {"name": "Oberegg AI, W\u00e4ssern", "lon": 9.540773654031652, "lat": 47.43083474770001, "stop_id": ["8574124.link:809584", "8574124.link:809585"], "lines": [{"line_id": "96-224-8-j24-1", "route_id": "14.TA.96-224-8-j24-1.3.R", "mode": "bus", "line_name": "229"}, {"line_id": "96-225-0-j24-1", "route_id": "16.TA.96-225-0-j24-1.8.R", "mode": "bus", "line_name": "228"}, {"line_id": "96-224-6-j24-1", "route_id": "20.TA.96-224-6-j24-1.4.R", "mode": "bus", "line_name": "226"}, {"line_id": "96-224-8-j24-1", "route_id": "7.TA.96-224-8-j24-1.2.R", "mode": "bus", "line_name": "229"}, {"line_id": "96-224-7-j24-1", "route_id": "13.TA.96-224-7-j24-1.6.R", "mode": "bus", "line_name": "227"}, {"line_id": "96-224-6-j24-1", "route_id": "24.TA.96-224-6-j24-1.5.R", "mode": "bus", "line_name": "226"}, {"line_id": "96-225-0-j24-1", "route_id": "13.TA.96-225-0-j24-1.8.R", "mode": "bus", "line_name": "228"}, {"line_id": "96-224-6-j24-1", "route_id": "36.TA.96-224-6-j24-1.6.R", "mode": "bus", "line_name": "226"}, {"line_id": "96-224-6-j24-1", "route_id": "19.TA.96-224-6-j24-1.3.R", "mode": "bus", "line_name": "226"}, {"line_id": "96-224-6-j24-1", "route_id": "1.TA.96-224-6-j24-1.1.H", "mode": "bus", "line_name": "226"}, {"line_id": "96-224-8-j24-1", "route_id": "3.TA.96-224-8-j24-1.1.H", "mode": "bus", "line_name": "229"}, {"line_id": "96-224-6-j24-1", "route_id": "17.TA.96-224-6-j24-1.2.H", "mode": "bus", "line_name": "226"}, {"line_id": "96-224-7-j24-1", "route_id": "2.TA.96-224-7-j24-1.2.H", "mode": "bus", "line_name": "227"}, {"line_id": "96-224-6-j24-1", "route_id": "2.TA.96-224-6-j24-1.1.H", "mode": "bus", "line_name": "226"}], "predominant_mode": "bus", "assigned_canton": "Appenzell Innerrhoden", "modes_list": ["bus"]}, "geometry": {"type": "Point", "coordinates": [9.540773663334962, 47.43083475757371]}}, {"id": "21483", "type": "Feature", "properties": {"name": "Reute AR, Br\u00fccke", "lon": 9.576957793724398, "lat": 47.421262727130966, "stop_id": ["8574129.link:1605573", "8574129.link:1605574"], "lines": [{"line_id": "96-224-6-j24-1", "route_id": "17.TA.96-224-6-j24-1.2.H", "mode": "bus", "line_name": "226"}, {"line_id": "96-224-6-j24-1", "route_id": "24.TA.96-224-6-j24-1.5.R", "mode": "bus", "line_name": "226"}, {"line_id": "96-224-6-j24-1", "route_id": "36.TA.96-224-6-j24-1.6.R", "mode": "bus", "line_name": "226"}], "predominant_mode": "bus", "assigned_canton": "Appenzell Innerrhoden", "modes_list": ["bus"]}, "geometry": {"type": "Point", "coordinates": [9.576957803063197, 47.42126273698996]}}, {"id": "23119", "type": "Feature", "properties": {"name": "Sammelplatz", "lon": 9.432454801268976, "lat": 47.34826980940728, "stop_id": ["8506381.link:71205", "8506381.link:71206"], "lines": [{"line_id": "91-21-j24-1", "route_id": "225.TA.91-21-j24-1.5.H", "mode": "rail", "line_name": "S21"}, {"line_id": "91-21-j24-1", "route_id": "146.TA.91-21-j24-1.5.H", "mode": "rail", "line_name": "S21"}, {"line_id": "91-21-j24-1", "route_id": "212.TA.91-21-j24-1.5.H", "mode": "rail", "line_name": "S21"}, {"line_id": "91-20-E-j24-1", "route_id": "7.TA.91-20-E-j24-1.1.H", "mode": "rail", "line_name": "S20"}, {"line_id": "91-21-j24-1", "route_id": "152.TA.91-21-j24-1.5.H", "mode": "rail", "line_name": "S21"}, {"line_id": "91-21-j24-1", "route_id": "181.TA.91-21-j24-1.5.H", "mode": "rail", "line_name": "S21"}, {"line_id": "91-21-j24-1", "route_id": "108.TA.91-21-j24-1.35.H", "mode": "rail", "line_name": "S21"}, {"line_id": "91-21-j24-1", "route_id": "138.TA.91-21-j24-1.4.H", "mode": "rail", "line_name": "S21"}, {"line_id": "91-21-j24-1", "route_id": "441.TA.91-21-j24-1.10.R", "mode": "rail", "line_name": "S21"}, {"line_id": "91-20-E-j24-1", "route_id": "15.TA.91-20-E-j24-1.3.R", "mode": "rail", "line_name": "S20"}, {"line_id": "91-21-j24-1", "route_id": "401.TA.91-21-j24-1.8.R", "mode": "rail", "line_name": "S21"}, {"line_id": "91-21-j24-1", "route_id": "434.TA.91-21-j24-1.10.R", "mode": "rail", "line_name": "S21"}, {"line_id": "91-21-j24-1", "route_id": "453.TA.91-21-j24-1.11.R", "mode": "rail", "line_name": "S21"}, {"line_id": "91-21-j24-1", "route_id": "299.TA.91-21-j24-1.40.R", "mode": "rail", "line_name": "S21"}, {"line_id": "91-21-j24-1", "route_id": "307.TA.91-21-j24-1.41.R", "mode": "rail", "line_name": "S21"}, {"line_id": "91-21-j24-1", "route_id": "449.TA.91-21-j24-1.11.R", "mode": "rail", "line_name": "S21"}, {"line_id": "91-20-E-j24-1", "route_id": "13.TA.91-20-E-j24-1.2.R", "mode": "rail", "line_name": "S20"}], "predominant_mode": "rail", "assigned_canton": "Appenzell Innerrhoden", "modes_list": ["rail"]}, "geometry": {"type": "Point", "coordinates": [9.432454810504312, 47.34826981929057]}}, {"id": "23972", "type": "Feature", "properties": {"name": "Schwende", "lon": 9.435589919679165, "lat": 47.3000553093586, "stop_id": ["8506277.link:874588", "8506277.link:874589"], "lines": [{"line_id": "91-23-A-j24-1", "route_id": "383.TA.91-23-A-j24-1.54.R", "mode": "rail", "line_name": "S23"}, {"line_id": "91-23-A-j24-1", "route_id": "397.TA.91-23-A-j24-1.55.R", "mode": "rail", "line_name": "S23"}, {"line_id": "91-23-A-j24-1", "route_id": "381.TA.91-23-A-j24-1.53.R", "mode": "rail", "line_name": "S23"}, {"line_id": "91-23-A-j24-1", "route_id": "431.TA.91-23-A-j24-1.57.R", "mode": "rail", "line_name": "S23"}, {"line_id": "91-23-A-j24-1", "route_id": "153.TA.91-23-A-j24-1.42.H", "mode": "rail", "line_name": "S23"}, {"line_id": "91-23-A-j24-1", "route_id": "225.TA.91-23-A-j24-1.44.H", "mode": "rail", "line_name": "S23"}, {"line_id": "91-23-A-j24-1", "route_id": "228.TA.91-23-A-j24-1.45.H", "mode": "rail", "line_name": "S23"}, {"line_id": "91-23-A-j24-1", "route_id": "169.TA.91-23-A-j24-1.43.H", "mode": "rail", "line_name": "S23"}, {"line_id": "91-23-A-j24-1", "route_id": "154.TA.91-23-A-j24-1.42.H", "mode": "rail", "line_name": "S23"}], "predominant_mode": "rail", "assigned_canton": "Appenzell Innerrhoden", "modes_list": ["rail"]}, "geometry": {"type": "Point", "coordinates": [9.435589928933936, 47.30005531922554]}}, {"id": "23973", "type": "Feature", "properties": {"name": "Schwende, Bahnhof", "lon": 9.435428219680528, "lat": 47.30009795936111, "stop_id": ["8582881.link:1086262", "8582881.link:1086263"], "lines": [{"line_id": "92-B23-j24-1", "route_id": "2.TA.92-B23-j24-1.2.H", "mode": "bus", "line_name": "B23"}, {"line_id": "92-B23-j24-1", "route_id": "7.TA.92-B23-j24-1.4.R", "mode": "bus", "line_name": "B23"}], "predominant_mode": "bus", "assigned_canton": "Appenzell Innerrhoden", "modes_list": ["bus"]}, "geometry": {"type": "Point", "coordinates": [9.435428228935134, 47.30009796922812]}}, {"id": "25900", "type": "Feature", "properties": {"name": "Steinegg", "lon": 9.430783930339066, "lat": 47.32011247943404, "stop_id": ["8506275.link:1575542", "8506275.link:1575543"], "lines": [{"line_id": "91-23-A-j24-1", "route_id": "383.TA.91-23-A-j24-1.54.R", "mode": "rail", "line_name": "S23"}, {"line_id": "91-23-A-j24-1", "route_id": "397.TA.91-23-A-j24-1.55.R", "mode": "rail", "line_name": "S23"}, {"line_id": "91-23-A-j24-1", "route_id": "381.TA.91-23-A-j24-1.53.R", "mode": "rail", "line_name": "S23"}, {"line_id": "91-23-A-j24-1", "route_id": "431.TA.91-23-A-j24-1.57.R", "mode": "rail", "line_name": "S23"}, {"line_id": "91-23-A-j24-1", "route_id": "153.TA.91-23-A-j24-1.42.H", "mode": "rail", "line_name": "S23"}, {"line_id": "91-23-A-j24-1", "route_id": "225.TA.91-23-A-j24-1.44.H", "mode": "rail", "line_name": "S23"}, {"line_id": "91-23-A-j24-1", "route_id": "228.TA.91-23-A-j24-1.45.H", "mode": "rail", "line_name": "S23"}, {"line_id": "91-23-A-j24-1", "route_id": "169.TA.91-23-A-j24-1.43.H", "mode": "rail", "line_name": "S23"}, {"line_id": "91-23-A-j24-1", "route_id": "154.TA.91-23-A-j24-1.42.H", "mode": "rail", "line_name": "S23"}], "predominant_mode": "rail", "assigned_canton": "Appenzell Innerrhoden", "modes_list": ["rail"]}, "geometry": {"type": "Point", "coordinates": [9.430783939582605, 47.320112489308926]}}, {"id": "25901", "type": "Feature", "properties": {"name": "Steinegg, Bahnhof", "lon": 9.430191040357556, "lat": 47.32067881944338, "stop_id": ["8579831.link:1226713", "8579831.link:1226714"], "lines": [{"line_id": "92-B23-j24-1", "route_id": "7.TA.92-B23-j24-1.4.R", "mode": "bus", "line_name": "B23"}, {"line_id": "96-221-8-j24-1", "route_id": "42.TA.96-221-8-j24-1.3.R", "mode": "bus", "line_name": "192"}, {"line_id": "92-B23-j24-1", "route_id": "2.TA.92-B23-j24-1.2.H", "mode": "bus", "line_name": "B23"}], "predominant_mode": "bus", "assigned_canton": "Appenzell Innerrhoden", "modes_list": ["bus"]}, "geometry": {"type": "Point", "coordinates": [9.430191049600364, 47.320678829318624]}}, {"id": "29360", "type": "Feature", "properties": {"name": "Wasserauen", "lon": 9.428618989199215, "lat": 47.28556043946835, "stop_id": ["8506289:0:1.link:874490", "8506289:0:1.link:874491"], "lines": [{"line_id": "91-23-A-j24-1", "route_id": "383.TA.91-23-A-j24-1.54.R", "mode": "rail", "line_name": "S23"}, {"line_id": "91-23-A-j24-1", "route_id": "397.TA.91-23-A-j24-1.55.R", "mode": "rail", "line_name": "S23"}, {"line_id": "91-23-A-j24-1", "route_id": "381.TA.91-23-A-j24-1.53.R", "mode": "rail", "line_name": "S23"}, {"line_id": "91-23-A-j24-1", "route_id": "431.TA.91-23-A-j24-1.57.R", "mode": "rail", "line_name": "S23"}, {"line_id": "91-23-A-j24-1", "route_id": "153.TA.91-23-A-j24-1.42.H", "mode": "rail", "line_name": "S23"}, {"line_id": "91-23-A-j24-1", "route_id": "225.TA.91-23-A-j24-1.44.H", "mode": "rail", "line_name": "S23"}, {"line_id": "91-23-A-j24-1", "route_id": "228.TA.91-23-A-j24-1.45.H", "mode": "rail", "line_name": "S23"}, {"line_id": "91-23-A-j24-1", "route_id": "169.TA.91-23-A-j24-1.43.H", "mode": "rail", "line_name": "S23"}, {"line_id": "91-23-A-j24-1", "route_id": "154.TA.91-23-A-j24-1.42.H", "mode": "rail", "line_name": "S23"}], "predominant_mode": "rail", "assigned_canton": "Appenzell Innerrhoden", "modes_list": ["rail"]}, "geometry": {"type": "Point", "coordinates": [9.428618998452649, 47.28556044933283]}}, {"id": "29361", "type": "Feature", "properties": {"name": "Wasserauen (Ebenalpbahn)", "lon": 9.42861898923515, "lat": 47.28665119946833, "stop_id": ["8506257.link:pt_8506257"], "lines": [{"line_id": "93-274-0-j24-1", "route_id": "243.TA.93-274-0-j24-1.2.R", "mode": "cable car", "line_name": "2740"}, {"line_id": "93-274-0-j24-1", "route_id": "116.TA.93-274-0-j24-1.1.H", "mode": "cable car", "line_name": "2740"}], "predominant_mode": "cable car", "assigned_canton": "Appenzell Innerrhoden", "modes_list": ["cable car"]}, "geometry": {"type": "Point", "coordinates": [9.428618998488215, 47.286651209333186]}}, {"id": "29362", "type": "Feature", "properties": {"name": "Wasserauen, Bahnhof", "lon": 9.428574069208429, "lat": 47.285840749469024, "stop_id": ["8582882.link:1086211", "8582882.link:1086212"], "lines": [{"line_id": "92-B23-j24-1", "route_id": "2.TA.92-B23-j24-1.2.H", "mode": "bus", "line_name": "B23"}, {"line_id": "92-B23-j24-1", "route_id": "7.TA.92-B23-j24-1.4.R", "mode": "bus", "line_name": "B23"}], "predominant_mode": "bus", "assigned_canton": "Appenzell Innerrhoden", "modes_list": ["bus"]}, "geometry": {"type": "Point", "coordinates": [9.428574078461724, 47.2858407593336]}}, {"id": "29580", "type": "Feature", "properties": {"name": "Weissbad", "lon": 9.435697710021854, "lat": 47.310447249356805, "stop_id": ["8506288.link:1575528", "8506288.link:1575529"], "lines": [{"line_id": "91-23-A-j24-1", "route_id": "383.TA.91-23-A-j24-1.54.R", "mode": "rail", "line_name": "S23"}, {"line_id": "91-23-A-j24-1", "route_id": "397.TA.91-23-A-j24-1.55.R", "mode": "rail", "line_name": "S23"}, {"line_id": "91-23-A-j24-1", "route_id": "381.TA.91-23-A-j24-1.53.R", "mode": "rail", "line_name": "S23"}, {"line_id": "91-23-A-j24-1", "route_id": "431.TA.91-23-A-j24-1.57.R", "mode": "rail", "line_name": "S23"}, {"line_id": "91-23-A-j24-1", "route_id": "153.TA.91-23-A-j24-1.42.H", "mode": "rail", "line_name": "S23"}, {"line_id": "91-23-A-j24-1", "route_id": "225.TA.91-23-A-j24-1.44.H", "mode": "rail", "line_name": "S23"}, {"line_id": "91-23-A-j24-1", "route_id": "228.TA.91-23-A-j24-1.45.H", "mode": "rail", "line_name": "S23"}, {"line_id": "91-23-A-j24-1", "route_id": "169.TA.91-23-A-j24-1.43.H", "mode": "rail", "line_name": "S23"}, {"line_id": "91-23-A-j24-1", "route_id": "154.TA.91-23-A-j24-1.42.H", "mode": "rail", "line_name": "S23"}], "predominant_mode": "rail", "assigned_canton": "Appenzell Innerrhoden", "modes_list": ["rail"]}, "geometry": {"type": "Point", "coordinates": [9.435697719273147, 47.31044725922703]}}, {"id": "29581", "type": "Feature", "properties": {"name": "Weissbad, Bahnhof", "lon": 9.43550907002319, "lat": 47.310489889359765, "stop_id": ["8506260.link:1934959", "8506260.link:1934960", "8506260.link:96856"], "lines": [{"line_id": "92-B23-j24-1", "route_id": "7.TA.92-B23-j24-1.4.R", "mode": "bus", "line_name": "B23"}, {"line_id": "96-221-8-j24-1", "route_id": "61.TA.96-221-8-j24-1.2.R", "mode": "bus", "line_name": "192"}, {"line_id": "92-B23-j24-1", "route_id": "2.TA.92-B23-j24-1.2.H", "mode": "bus", "line_name": "B23"}, {"line_id": "96-221-8-j24-1", "route_id": "1.TA.96-221-8-j24-1.1.H", "mode": "bus", "line_name": "192"}, {"line_id": "96-221-8-j24-1", "route_id": "42.TA.96-221-8-j24-1.3.R", "mode": "bus", "line_name": "192"}], "predominant_mode": "bus", "assigned_canton": "Appenzell Innerrhoden", "modes_list": ["bus"]}, "geometry": {"type": "Point", "coordinates": [9.435509079274302, 47.310489899230056]}}, {"id": "29582", "type": "Feature", "properties": {"name": "Weissbad, Berg", "lon": 9.447815989665209, "lat": 47.299513119166214, "stop_id": ["8578412.link:439148", "8578412.link:439149"], "lines": [{"line_id": "96-221-8-j24-1", "route_id": "61.TA.96-221-8-j24-1.2.R", "mode": "bus", "line_name": "192"}, {"line_id": "96-221-8-j24-1", "route_id": "1.TA.96-221-8-j24-1.1.H", "mode": "bus", "line_name": "192"}], "predominant_mode": "bus", "assigned_canton": "Appenzell Innerrhoden", "modes_list": ["bus"]}, "geometry": {"type": "Point", "coordinates": [9.447815998931185, 47.29951312902906]}}, {"id": "29583", "type": "Feature", "properties": {"name": "Weissbad, B\u00f6tz", "lon": 9.44418678974678, "lat": 47.302022989223325, "stop_id": ["8578411.link:110756", "8578411.link:110757"], "lines": [{"line_id": "96-221-8-j24-1", "route_id": "61.TA.96-221-8-j24-1.2.R", "mode": "bus", "line_name": "192"}, {"line_id": "96-221-8-j24-1", "route_id": "1.TA.96-221-8-j24-1.1.H", "mode": "bus", "line_name": "192"}], "predominant_mode": "bus", "assigned_canton": "Appenzell Innerrhoden", "modes_list": ["bus"]}, "geometry": {"type": "Point", "coordinates": [9.444186799008625, 47.302022999088145]}}, {"id": "29584", "type": "Feature", "properties": {"name": "Weissbad, Zidler", "lon": 9.435841439893752, "lat": 47.30656116935456, "stop_id": ["8578413.link:1724933", "8578413.link:1724934"], "lines": [{"line_id": "96-221-8-j24-1", "route_id": "61.TA.96-221-8-j24-1.2.R", "mode": "bus", "line_name": "192"}, {"line_id": "96-221-8-j24-1", "route_id": "1.TA.96-221-8-j24-1.1.H", "mode": "bus", "line_name": "192"}], "predominant_mode": "bus", "assigned_canton": "Appenzell Innerrhoden", "modes_list": ["bus"]}, "geometry": {"type": "Point", "coordinates": [9.435841449146512, 47.306561179223515]}}]}